IRIDIUM 171             
1 43929U 19002H   25024.54882835  .00000074  00000+0  19422-4 0  9997
2 43929  86.3983 206.3544 0002446  90.2851 269.8625 14.34217650316057
IRIDIUM 170             
1 43930U 19002J   25024.56287780  .00001028  00000+0  15909-3 0  9994
2 43930  86.6102 206.1293 0002001  93.0658 267.0788 14.72254823324422
IRIDIUM 167             
1 43931U 19002K   25024.54248725 -.00000009  00000+0 -10345-4 0  9999
2 43931  86.3979 206.1256 0002229  99.2124 260.9324 14.34217565316057
IRIDIUM 181             
1 56726U 23068S   25024.43670157  .00000907  00000+0  26342-3 0  9996
2 56726  86.4484 269.2968 0002675  85.4378 274.7128 14.43318309 89058
IRIDIUM 177             
1 56727U 23068T   25024.55297530  .00001373  00000+0  17720-3 0  9998
2 56727  86.1969 210.2451 0001850  88.4036 271.7397 14.80225230 91122
IRIDIUM 174             
1 56728U 23068U   25024.54745469  .00000565  00000+0  70830-4 0  9991
2 56728  86.1972 210.3685 0002365  84.9268 275.2223 14.80229001 91124
IRIDIUM 178             
1 56729U 23068V   25024.60958829  .00003231  00000+0  42143-3 0  9993
2 56729  86.5755 238.2742 0002868  74.9452 285.2087 14.80264470 91132
IRIDIUM 179             
1 56730U 23068W   25024.60419523  .00003059  00000+0  39923-3 0  9998
2 56730  86.6759 245.1979 0002366  79.6438 280.5051 14.80215081 91130
